{
  "norad_id": 59527,
  "name": "STARLINK-31452",
  "history": [
    {
      "epoch": "2026-03-28T18:59:05.662464",
      "apogee_km": 483.8451179446547,
      "perigee_km": 482.16153133179614,
      "latitude_deg": -39.43345150549869,
      "longitude_deg": -151.36037504021078,
      "semi_major_axis_km": 6861.140324638225,
      "eccentricity": 0.00012269,
      "inclination_deg": 43.0036,
      "raan_deg": 210.4257,
      "arg_perigee_deg": 265.9463,
      "mean_anomaly_deg": 94.1248,
      "mean_motion_rev_day": 15.27595286
    }
  ]
}